NUSAT-1 (FRESCO)        
1 41557U 16033B   22247.42507924  .00009383  00000+0  26725-3 0  9992
2 41557  97.3897 345.3526 0011825  95.9697 328.4232 15.36248810349500
BEESAT-4                
1 41619U 16040W   22246.55911605  .00012158  00000+0  38487-3 0  9999
2 41619  97.2100 295.1695 0009112 185.5168 174.5976 15.32854812332686
CAS-2T & KS-1Q          
1 41847U 16066G   22247.42070070  .00000243  00000+0  47021-4 0  9996
2 41847  98.5445 311.9829 0362878 333.8257  24.4974 14.38706963305701
NAYIF-1 (EO-88)         
1 42017U 17008BX  22246.69059848  .00014880  00000+0  41712-3 0  9993
2 42017  97.2621 311.7581 0003526 342.2688  17.8432 15.36685283309080
ZHUHAI-1 02 (CAS-4B)    
1 42759U 17034B   22247.45170260  .00001575  00000+0  10204-3 0  9991
2 42759  43.0165 257.1093 0008540  59.6440  56.4118 15.12342432288314
ZHUHAI-1 01 (CAS-4A)    
1 42761U 17034D   22247.48544955  .00001900  00000+0  12016-3 0  9998
2 42761  43.0167 255.6546 0008692  62.8941  66.8094 15.12429148288324
MAX VALIER SAT          
1 42778U 17036P   22247.39103597  .00006393  00000+0  23615-3 0  9999
2 42778  97.1996 285.8080 0011911  53.6326 306.6011 15.28007616288955
RADFXSAT (FOX-1B)       
1 43017U 17073E   22247.18357054  .00002603  00000+0  19940-3 0  9999
2 43017  97.6634 138.1414 0245527 290.0896  67.4049 14.81907180258771
FOX-1D (AO-92)          
1 43137U 18004AC  22246.77320655  .00008874  00000+0  30225-3 0  9993
2 43137  97.3633 321.2715 0009038  87.1234 273.1041 15.30590585258326
DIWATA-2B               
1 43678U 18084H   22247.50755294  .00000104  00000+0  15996-4 0  9991
2 43678  97.9818  21.7514 0010620  30.9356 329.2473 14.92272600209641
ES'HAIL 2               
1 43700U 18090A   22247.07602060  .00000140  00000+0  00000+0 0  9993
2 43700   0.0134 126.4590 0002130  68.7989 201.0778  1.00273443 14064
FOX-1CLIFF (AO-95)      
1 43770U 18099N   22247.15089217  .00001107  00000+0  10170-3 0  9998
2 43770  97.6150 311.4482 0014502  18.2501 341.9239 14.96734187204785
ITASAT 1                
1 43786U 18099AE  22247.13761874  .00001770  00000+0  15914-3 0  9996
2 43786  97.6177 312.3949 0014849  11.6786 348.4777 14.96838937204827
JY1SAT (JO-97)          
1 43803U 18099AX  22246.72665217  .00002263  00000+0  19926-3 0  9999
2 43803  97.6134 311.7742 0014465  11.6179 348.5375 14.97396601204782
UWE-4                   
1 43880U 18111E   22246.73655291  .00002033  00000+0  17474-3 0  9992
2 43880  97.6591 151.6707 0012722  61.5654 298.6849 14.98478021201429
NEXUS (FO-99)           
1 43937U 19003F   22246.64045342  .00010466  00000+0  33698-3 0  9991
2 43937  97.1263 277.0117 0018343 229.3923 130.5724 15.32221324201943
PSAT2 (NO-104)          
1 44354U 19036R   22247.40422964  .00068734 -50551-5  53379-3 0  9997
2 44354  28.5243 347.8593 0204728 145.6038 215.8004 15.47251063176889
JAISAT-1                
1 44419U 19038F   22246.88777884  .00006846  00000+0  33589-3 0  9990
2 44419  97.6427 217.7272 0017574 214.8059 145.2026 15.18302401174951
DUCHIFAT-3              
1 44854U 19089C   22247.39992995  .00002268  00000+0  17818-3 0  9999
2 44854  36.9685 352.1674 0006940 145.1342 286.9140 15.01482457149800
CAS-6 (TIANQIN 1)       
1 44881U 19093C   22247.31644639  .00000294  00000+0  43862-4 0  9991
2 44881  97.8894 325.3843 0013739 291.9923  67.9851 14.81797733146454
RS-44 & BREEZE-KM R/B   
1 44909U 19096E   22246.84272428  .00000020  00000+0  26891-4 0  9995
2 44909  82.5251 178.2048 0218043 136.2235 225.6386 12.79714544125533
ORBITAL FACTORY 2 (OF-2)
1 45113U 19071C   22246.78353094  .00030330  00000+0  55833-3 0  9992
2 45113  51.6380  32.9522 0008402 100.9471 259.2463 15.48878015145501
HUSKYSAT-1 (HO-107)     
1 45119U 19071J   22246.78240923  .00025036  00000+0  48529-3 0  9995
2 45119  51.6386  33.6628 0008479  97.0006 263.1946 15.47499156145483
BY70-2                  
1 45857U 20042B   22247.38181766  .00003756  00000+0  49638-3 0  9997
2 45857  97.9527 323.5021 0009923 212.2420 147.8230 14.80561567117133
SALSAT                  
1 46495U 20068K   22246.83549330  .00001804  00000+0  13203-3 0  9999
2 46495  97.7335 188.1878 0016946  18.4117 341.7719 15.04777866105978
BY70-3                  
1 46839U 20079N   22247.47682144  .00016876  00000+0  36074-3 0  9991
2 46839  97.1922 318.6722 0005972  56.9184  63.7381 15.44878585102430
RADFXSAT-2 (AO-109)     
1 47311U 21002C   22247.03904636  .00007838  00000+0  30638-3 0  9997
2 47311  60.6850  66.1818 0030303  32.1414 328.1513 15.26310677 90467
UVSQ-SAT                
1 47438U 21006AB  22246.69060424  .00004787  00000+0  24938-3 0  9996
2 47438  97.4306 304.1050 0011708  11.9960 348.1550 15.16410914 89132
DIY-1 (ARDUIQUBE)       
1 47963U 21022AH  22246.70663543  .00012966  00000+0  68785-3 0  9996
2 47963  97.5224 147.2357 0014492 215.9774 144.0483 15.15394639 78795
XW-3 (CAS-9)            
1 50466U 21131B   22247.46637095  .00000077  00000+0  39862-4 0  9991
2 50466  98.5768 324.6703 0003349 270.4894  89.5909 14.38518238 36275
TEVEL-3                 
1 50988U 22002E   22247.50658691  .00004594  00000+0  24763-3 0  9999
2 50988  97.4750 313.1887 0010605 143.7975 340.5725 15.15232986 35380
TEVEL-8                 
1 50989U 22002F   22247.44824543  .00004683  00000+0  25272-3 0  9999
2 50989  97.4763 313.1590 0010687 142.8160 340.7975 15.15179875 35377
TEVEL-5                 
1 50998U 22002Q   22247.50224198  .00004690  00000+0  24914-3 0  9996
2 50998  97.4751 313.3248 0012269 140.6086 344.3906 15.15727617 35396
TEVEL-6                 
1 50999U 22002R   22247.50166481  .00004701  00000+0  24966-3 0  9997
2 50999  97.4749 313.3223 0012082 139.7842 345.1921 15.15732596 35397
TEVEL-1                 
1 51013U 22002AF  22247.44429362  .00004657  00000+0  25119-3 0  9999
2 51013  97.4754 313.1056 0010432 143.9928 341.6691 15.15206508 35374
TEVEL-7                 
1 51062U 22002CG  22247.46219907  .00004718  00000+0  25468-3 0  9992
2 51062  97.4765 313.1570 0010618 142.5664  47.4494 15.15172348 35375
TEVEL-4                 
1 51063U 22002CH  22247.45090433  .00004701  00000+0  25382-3 0  9990
2 51063  97.4766 313.1423 0010607 142.2993 341.1595 15.15162611 35372
TEVEL-2                 
1 51069U 22002CP  22247.50793618  .00004631  00000+0  24966-3 0  9996
2 51069  97.4751 313.1750 0010601 143.6410 340.4949 15.15225994 35388
YUZGU 9 (RS3S)          
1 53308U 98067TT  22247.37981476  .00039629  00000+0  62933-3 0  9995
2 53308  51.6412 303.7929 0000777 144.7333 215.3709 15.52942478  7011
YUZGU 7 (RS1S)          
1 53309U 98067TU  22247.44279718  .00041701  00000+0  65941-3 0  9999
2 53309  51.6410 303.4623 0000989 207.2872 152.8066 15.53037917  6975
YUZGU 11 (RS5S)         
1 53310U 98067TV  22247.37942942  .00039903  00000+0  63383-3 0  9998
2 53310  51.6413 303.7908 0000791 209.9818 150.1127 15.52932954  6994
YUZGU 12 (RS6S)         
1 53311U 98067TW  22247.37562438  .00042970  00000+0  67563-3 0  9999
2 53311  51.6408 303.7636 0000915 113.1064 247.0023 15.53181510  7014
TSIOLKOVSKY-RYAZAN 1 (*)
1 53312U 98067TX  22247.44127065  .00048403  00000+0  76199-3 0  9993
2 53312  51.6413 303.4526 0001176 213.6678 146.4237 15.53094480  6964
TSIOLKOVSKY-RYAZAN 2 (*)
1 53313U 98067TY  22247.44003083  .00041583  00000+0  65555-3 0  9993
2 53313  51.6413 303.4451 0000810 236.1547 123.9366 15.53123359  7019
YUZGU 10 (RS4S)         
1 53321U 98067TZ  22247.44463943  .00041970  00000+0  66544-3 0  9996
2 53321  51.6415 303.4776 0000658 170.6369 189.4633 15.52960237  7011
RS29S (SXC3-2110 CYCLO*)
1 53373U 22096D   22247.51532497  .00005797  00000+0  23727-3 0  9994
2 53373  97.4335 148.7870 0003723  88.5060  36.6962 15.24701252  3993
RS32S (SXC3-212 MONITO*)
1 53374U 22096E   22247.51348440  .00005922  00000+0  24152-3 0  9991
2 53374  97.4335 148.7877 0003786  82.9425  42.1493 15.24810024  3992
RS34S (SXC3-218 KUZBAS*)
1 53375U 22096F   22247.32010146  .00005012  00000+0  20496-3 0  9997
2 53375  97.4336 148.5976 0003762  82.2935  62.8543 15.24797028  3965
RS23S (SXC3-21 UTMN)    
1 53376U 22096G   22247.51273440  .00005011  00000+0  20466-3 0  9993
2 53376  97.4325 148.7893 0003666  80.5595  44.8602 15.24838417  3997
RS28S (SXC3-214 MIET-A*)
1 53377U 22096H   22247.50825509  .00004984  00000+0  20345-3 0  9996
2 53377  97.4329 148.7864 0003681  79.3804  24.0571 15.24863107  3995
RS26S (KAI-1)           
1 53378U 22096J   22247.52052090  .00004399  00000+0  17982-3 0  9999
2 53378  97.4331 148.7996 0003666  76.2028  97.5164 15.24880255  3998
RS19S (SXC3-219 ISOI)   
1 53381U 22096M   22247.31177277  .00005297  00000+0  21320-3 0  9994
2 53381  97.4328 148.6084 0004823  26.3472 120.4095 15.25305881  3964
RS21S (CUBESX-HSE-2)    
1 53383U 22096P   22247.50354372  .00004961  00000+0  19951-3 0  9994
2 53383  97.4333 148.8015 0004925  25.0135  99.8253 15.25362677  3997
RS30S (SXC3-217 SIREN)  
1 53384U 22096Q   22247.50325292  .00004495  00000+0  18100-3 0  9991
2 53384  97.4329 148.8021 0005074  22.8290 102.2707 15.25373492  3993
RS20S (GEOSCAN-EDELVEIS)
1 53385U 22096R   22247.49981572  .00006014  00000+0  23970-3 0  9999
2 53385  97.4329 148.8052 0005565  21.3714 100.1646 15.25569979  4029
RS33S (SXC3-215 VIZARD) 
1 53386U 22096S   22247.49339131  .00007232  00000+0  28540-3 0  9999
2 53386  97.4331 148.8063 0006138  20.5355  87.2208 15.25829501  4012
